SKYSAT-C4               
1 41771U 16058B   26183.51505949  .00016943  00000+0  31364-3 0  9990
2 41771  96.9163 204.6492 0002682 136.9395 223.2067 15.49073522547845
SKYSAT-C5               
1 41772U 16058C   26183.55806025  .00008161  00000+0  24494-3 0  9993
2 41772  97.0457 223.5135 0001929 191.1565 168.9636 15.34689761546100
SKYSAT-C2               
1 41773U 16058D   26183.50700311  .00012396  00000+0  28849-3 0  9993
2 41773  97.0157 205.0276 0003095  35.1198 325.0254 15.42422166547414
SKYSAT-C3               
1 41774U 16058E   26183.80234108  .00025681  00000+0  40942-3 0  9992
2 41774  96.8995 214.0541 0001587 132.8272 227.3116 15.53216241548531
ALSAT-1B                
1 41785U 16059C   26183.87170326  .00000657  00000+0  11146-3 0  9993
2 41785  97.7744 191.9585 0009389 166.5458 193.6002 14.72287583522880
PATHFINDER 1            
1 41787U 16059E   26183.81713067  .00000748  00000+0  13881-3 0  9993
2 41787  97.8169 182.3881 0029061 153.7681 206.5004 14.67681735522003
SCATSAT 1               
1 41790U 16059H   26183.63285097  .00001519  00000+0  20536-3 0  9996
2 41790  98.1185 247.5581 0054286 196.9452 162.9947 14.79561787103870
GOKTURK 1A              
1 41875U 16073A   26183.84179355  .00000490  00000+0  10522-3 0  9999
2 41875  98.1235  78.2702 0001404  78.9991 281.1369 14.62785994511117
RESOURCESAT-2A          
1 41877U 16074A   26183.83643410  .00000161  00000+0  93406-4 0  9997
2 41877  98.7527 257.2127 0003017  53.1724 306.9729 14.21605459496525
CARTOSAT-2D             
1 41948U 17008A   26183.83397032  .00004457  00000+0  21492-3 0  9997
2 41948  97.4097 242.8477 0004780 176.6069 183.5199 15.19202800519955
SENTINEL-2B             
1 42063U 17013A   26183.80188093  .00000270  00000+0  11946-3 0  9996
2 42063  98.5692 258.3559 0001198  89.1282 271.0038 14.30821893486875
CARTOSAT-2E             
1 42767U 17036C   26183.85177208  .00003335  00000+0  16129-3 0  9996
2 42767  97.4260 243.3962 0002455 238.6559 121.4436 15.19284257500526
FORMOSAT-5              
1 42920U 17049A   26183.77650546  .00000202  00000+0  62165-4 0  9995
2 42920  98.2251 258.7398 0012137  40.6850 319.5250 14.50904612468932
SENTINEL-5P             
1 42969U 17064A   26183.84975961  .00000061  00000+0  50098-4 0  9999
2 42969  98.7927 125.8697 0001056  91.7647 268.3650 14.19521617451780
SKYSAT-C11              
1 42987U 17068A   26183.85434106  .00033708  00000+0  43820-3 0  9993
2 42987  97.4374 333.3766 0000549 157.1121 203.0159 15.58726723485680
SKYSAT-C10              
1 42988U 17068B   26183.80967318  .00011042  00000+0  32847-3 0  9999
2 42988  97.4529 320.8125 0001253 108.7727 251.3652 15.34904040484755
SKYSAT-C9               
1 42989U 17068C   26183.81587098  .00015119  00000+0  35656-3 0  9994
2 42989  97.4450 321.9041 0009390  83.9821 276.2496 15.41951093485163
SKYSAT-C8               
1 42990U 17068D   26183.82218206  .00012202  00000+0  33620-3 0  9998
2 42990  97.4548 320.6850 0001266  94.9370 265.2019 15.37283391484715
SKYSAT-C7               
1 42991U 17068E   26183.81628497  .00012033  00000+0  33188-3 0  9996
2 42991  97.4558 321.6696 0006700  60.6962 299.4951 15.37235684484773
SKYSAT-C6               
1 42992U 17068F   26183.80045990  .00010302  00000+0  31310-3 0  9999
2 42992  97.4593 321.5616 0005221 108.7442 251.4368 15.34234376484716
CARTOSAT-2F             
1 43111U 18004A   26183.88419049  .00004300  00000+0  20763-3 0  9993
2 43111  97.4778 243.3653 0001644 157.3890 202.7417 15.19189060469718
GAOFEN-1 02             
1 43259U 18031A   26183.88593250  .00000934  00000+0  14169-3 0  9995
2 43259  98.0521 246.3684 0002284 347.0079  13.1071 14.76458121445015
GAOFEN-1 03             
1 43260U 18031B   26183.86395230  .00000844  00000+0  12867-3 0  9996
2 43260  98.0510 246.2035 0003308  46.2783 313.8700 14.76448370445005
GAOFEN-1 04             
1 43262U 18031D   26183.83972602  .00000433  00000+0  69633-4 0  9997
2 43262  98.0523 246.3718 0001816  61.1589 298.9803 14.76455309444996
SENTINEL-3B             
1 43437U 18039A   26183.47802154  .00000140  00000+0  76068-4 0  9998
2 43437  98.6244 250.7906 0000853 115.3560 244.7708 14.26739163426301
GAOFEN-5 01             
1 43461U 18043A   26183.68084358  .00000381  00000+0  88497-4 0  9997
2 43461  98.4579 155.5932 0002701  55.5650 304.5805 14.60616345433953
GAOFEN-6                
1 43484U 18048A   26183.86155716 -.00000225  00000+0 -24837-4 0  9991
2 43484  98.0964 246.5337 0011926 116.3117 243.9319 14.76368337435708
GAOFEN-11 01            
1 43585U 18063A   26183.86999480  .00012641  00000+0  18490-3 0  9994
2 43585  97.1282 250.7086 0002094 267.1191  92.9825 15.55739688442783
ICESAT-2                
1 43613U 18070A   26183.80448267  .00010031  00000+0  36532-3 0  9998
2 43613  92.0095 295.1986 0006119  91.1082 269.0868 15.28160519434842
HYSIS                   
1 43719U 18096A   26183.84348259  .00000898  00000+0  12961-3 0  9997
2 43719  97.9836 250.4684 0001870  88.8155 271.3270 14.78648257409735
KAZSTSAT                
1 43783U 18099AB  26183.57498709  .00002131  00000+0  17615-3 0  9990
2 43783  97.4302 214.8068 0008299  26.1477 334.0165 14.99922730413619
